STARLINK-36050          
1 66602U 25270Q   25362.28970620  .00064235  00000+0  15297-2 0  9993
2 66602  43.0006 103.0933 0006733 287.8092  72.2030 15.40727044  6643
STARLINK-36048          
1 66603U 25270R   25362.26954899  .00070856  00000+0  16848-2 0  9991
2 66603  42.9977 102.9390 0001038 314.1767  45.9004 15.40752762  6643
STARLINK-35977          
1 66604U 25270S   25362.32989088  .00065263  00000+0  15528-2 0  9997
2 66604  42.9987 102.5285 0001778 170.0343 190.0548 15.40765959  6753
STARLINK-36052          
1 66605U 25270T   25362.31645001  .00065631  00000+0  15626-2 0  9999
2 66605  43.0008 102.4255 0001414 270.0803  89.9891 15.40744270  6755
STARLINK-36063          
1 66606U 25270U   25362.30076672  .00060064  00000+0  14308-2 0  9992
2 66606  42.9957 102.2996 0000056 156.8550 203.2309 15.40763181  6755
STARLINK-35993          
1 66607U 25270V   25361.01764808  .00049906  00000+0  11936-2 0  9991
2 66607  42.9959 109.8792 0000480  40.5095 319.5797 15.40714883  6453
STARLINK-36036          
1 66608U 25270W   25362.36335686  .00058227  00000+0  13883-2 0  9998
2 66608  42.9998 101.9116 0001443 267.1238  92.9453 15.40747900  6600
STARLINK-36034          
1 66609U 25270X   25362.29405097  .00080064  00000+0  18997-2 0  9990
2 66609  42.9942 102.2490 0000897 180.8206 179.2649 15.40765853  6598
STARLINK-35680          
1 66610U 25270Y   25362.30972892  .00076115  00000+0  18071-2 0  9991
2 66610  42.9983 102.3708 0003641 290.0290  70.0175 15.40765317  6862
STARLINK-35583          
1 66611U 25270Z   25362.30525095  .00058961  00000+0  14055-2 0  9998
2 66611  42.9974 102.3369 0000590 150.1211 209.9679 15.40750128  6861
STARLINK-36039          
1 66612U 25270AA  25362.41488947 -.00000413  00000+0 -26212-5 0  9997
2 66612  43.0000 102.3028 0001240 209.5323 150.5464 15.40770943  6761
STARLINK-36037          
1 66613U 25270AB  25362.34557176  .00031067  00000+0  74827-3 0  9991
2 66613  43.0001 102.6460 0001149 235.1135 124.9613 15.40687094  6754
