CCSDS_OMM_VERS = 2.0
CREATION_DATE  = 
ORIGINATOR     = 

OBJECT_NAME    = STARLINK-36050
OBJECT_ID      = 2025-270Q
CENTER_NAME    = EARTH
REF_FRAME      = TEME
TIME_SYSTEM    = UTC
MEAN_ELEMENT_THEORY = SGP/SGP4

EPOCH          = 2025-12-28T06:57:10.615680
MEAN_MOTION    = 15.40727044
ECCENTRICITY   = .0006733
INCLINATION    = 43.0006
RA_OF_ASC_NODE = 103.0933
ARG_OF_PERICENTER = 287.8092
MEAN_ANOMALY   = 72.2030

EPHEMERIS_TYPE = 0
CLASSIFICATION_TYPE = U
NORAD_CAT_ID   = 66602
ELEMENT_SET_NO = 999
REV_AT_EPOCH   = 664
BSTAR          = .15297E-2
MEAN_MOTION_DOT = .64235E-3
MEAN_MOTION_DDOT = 0

CCSDS_OMM_VERS = 2.0
CREATION_DATE  = 
ORIGINATOR     = 

OBJECT_NAME    = STARLINK-36048
OBJECT_ID      = 2025-270R
CENTER_NAME    = EARTH
REF_FRAME      = TEME
TIME_SYSTEM    = UTC
MEAN_ELEMENT_THEORY = SGP/SGP4

EPOCH          = 2025-12-28T06:28:09.032736
MEAN_MOTION    = 15.40752762
ECCENTRICITY   = .0001038
INCLINATION    = 42.9977
RA_OF_ASC_NODE = 102.9390
ARG_OF_PERICENTER = 314.1767
MEAN_ANOMALY   = 45.9004

EPHEMERIS_TYPE = 0
CLASSIFICATION_TYPE = U
NORAD_CAT_ID   = 66603
ELEMENT_SET_NO = 999
REV_AT_EPOCH   = 664
BSTAR          = .16848E-2
MEAN_MOTION_DOT = .70856E-3
MEAN_MOTION_DDOT = 0

CCSDS_OMM_VERS = 2.0
CREATION_DATE  = 
ORIGINATOR     = 

OBJECT_NAME    = STARLINK-35977
OBJECT_ID      = 2025-270S
CENTER_NAME    = EARTH
REF_FRAME      = TEME
TIME_SYSTEM    = UTC
MEAN_ELEMENT_THEORY = SGP/SGP4

EPOCH          = 2025-12-28T07:55:02.572032
MEAN_MOTION    = 15.40765959
ECCENTRICITY   = .0001778
INCLINATION    = 42.9987
RA_OF_ASC_NODE = 102.5285
ARG_OF_PERICENTER = 170.0343
MEAN_ANOMALY   = 190.0548

EPHEMERIS_TYPE = 0
CLASSIFICATION_TYPE = U
NORAD_CAT_ID   = 66604
ELEMENT_SET_NO = 999
REV_AT_EPOCH   = 675
BSTAR          = .15528E-2
MEAN_MOTION_DOT = .65263E-3
MEAN_MOTION_DDOT = 0

CCSDS_OMM_VERS = 2.0
CREATION_DATE  = 
ORIGINATOR     = 

OBJECT_NAME    = STARLINK-36052
OBJECT_ID      = 2025-270T
CENTER_NAME    = EARTH
REF_FRAME      = TEME
TIME_SYSTEM    = UTC
MEAN_ELEMENT_THEORY = SGP/SGP4

EPOCH          = 2025-12-28T07:35:41.280864
MEAN_MOTION    = 15.40744270
ECCENTRICITY   = .0001414
INCLINATION    = 43.0008
RA_OF_ASC_NODE = 102.4255
ARG_OF_PERICENTER = 270.0803
MEAN_ANOMALY   = 89.9891

EPHEMERIS_TYPE = 0
CLASSIFICATION_TYPE = U
NORAD_CAT_ID   = 66605
ELEMENT_SET_NO = 999
REV_AT_EPOCH   = 675
BSTAR          = .15626E-2
MEAN_MOTION_DOT = .65631E-3
MEAN_MOTION_DDOT = 0

CCSDS_OMM_VERS = 2.0
CREATION_DATE  = 
ORIGINATOR     = 

OBJECT_NAME    = STARLINK-36063
OBJECT_ID      = 2025-270U
CENTER_NAME    = EARTH
REF_FRAME      = TEME
TIME_SYSTEM    = UTC
MEAN_ELEMENT_THEORY = SGP/SGP4

EPOCH          = 2025-12-28T07:13:06.244608
MEAN_MOTION    = 15.40763181
ECCENTRICITY   = .0000056
INCLINATION    = 42.9957
RA_OF_ASC_NODE = 102.2996
ARG_OF_PERICENTER = 156.8550
MEAN_ANOMALY   = 203.2309

EPHEMERIS_TYPE = 0
CLASSIFICATION_TYPE = U
NORAD_CAT_ID   = 66606
ELEMENT_SET_NO = 999
REV_AT_EPOCH   = 675
BSTAR          = .14308E-2
MEAN_MOTION_DOT = .60064E-3
MEAN_MOTION_DDOT = 0

CCSDS_OMM_VERS = 2.0
CREATION_DATE  = 
ORIGINATOR     = 

OBJECT_NAME    = STARLINK-35993
OBJECT_ID      = 2025-270V
CENTER_NAME    = EARTH
REF_FRAME      = TEME
TIME_SYSTEM    = UTC
MEAN_ELEMENT_THEORY = SGP/SGP4

EPOCH          = 2025-12-27T00:25:24.794112
MEAN_MOTION    = 15.40714883
ECCENTRICITY   = .00004801
INCLINATION    = 42.9959
RA_OF_ASC_NODE = 109.8792
ARG_OF_PERICENTER = 40.5095
MEAN_ANOMALY   = 319.5797

EPHEMERIS_TYPE = 0
CLASSIFICATION_TYPE = U
NORAD_CAT_ID   = 66607
ELEMENT_SET_NO = 999
REV_AT_EPOCH   = 645
BSTAR          = .11935754E-2
MEAN_MOTION_DOT = .49906E-3
MEAN_MOTION_DDOT = 0

CCSDS_OMM_VERS = 2.0
CREATION_DATE  = 
ORIGINATOR     = 

OBJECT_NAME    = STARLINK-36036
OBJECT_ID      = 2025-270W
CENTER_NAME    = EARTH
REF_FRAME      = TEME
TIME_SYSTEM    = UTC
MEAN_ELEMENT_THEORY = SGP/SGP4

EPOCH          = 2025-12-28T08:43:14.032704
MEAN_MOTION    = 15.40747900
ECCENTRICITY   = .0001443
INCLINATION    = 42.9998
RA_OF_ASC_NODE = 101.9116
ARG_OF_PERICENTER = 267.1238
MEAN_ANOMALY   = 92.9453

EPHEMERIS_TYPE = 0
CLASSIFICATION_TYPE = U
NORAD_CAT_ID   = 66608
ELEMENT_SET_NO = 999
REV_AT_EPOCH   = 660
BSTAR          = .13883E-2
MEAN_MOTION_DOT = .58227E-3
MEAN_MOTION_DDOT = 0

CCSDS_OMM_VERS = 2.0
CREATION_DATE  = 
ORIGINATOR     = 

OBJECT_NAME    = STARLINK-36034
OBJECT_ID      = 2025-270X
CENTER_NAME    = EARTH
REF_FRAME      = TEME
TIME_SYSTEM    = UTC
MEAN_ELEMENT_THEORY = SGP/SGP4

EPOCH          = 2025-12-28T07:03:26.003808
MEAN_MOTION    = 15.40765853
ECCENTRICITY   = .0000897
INCLINATION    = 42.9942
RA_OF_ASC_NODE = 102.2490
ARG_OF_PERICENTER = 180.8206
MEAN_ANOMALY   = 179.2649

EPHEMERIS_TYPE = 0
CLASSIFICATION_TYPE = U
NORAD_CAT_ID   = 66609
ELEMENT_SET_NO = 999
REV_AT_EPOCH   = 659
BSTAR          = .18997E-2
MEAN_MOTION_DOT = .80064E-3
MEAN_MOTION_DDOT = 0

CCSDS_OMM_VERS = 2.0
CREATION_DATE  = 
ORIGINATOR     = 

OBJECT_NAME    = STARLINK-35680
OBJECT_ID      = 2025-270Y
CENTER_NAME    = EARTH
REF_FRAME      = TEME
TIME_SYSTEM    = UTC
MEAN_ELEMENT_THEORY = SGP/SGP4

EPOCH          = 2025-12-28T07:26:00.578688
MEAN_MOTION    = 15.40765317
ECCENTRICITY   = .0003641
INCLINATION    = 42.9983
RA_OF_ASC_NODE = 102.3708
ARG_OF_PERICENTER = 290.0290
MEAN_ANOMALY   = 70.0175

EPHEMERIS_TYPE = 0
CLASSIFICATION_TYPE = U
NORAD_CAT_ID   = 66610
ELEMENT_SET_NO = 999
REV_AT_EPOCH   = 686
BSTAR          = .18071E-2
MEAN_MOTION_DOT = .76115E-3
MEAN_MOTION_DDOT = 0

CCSDS_OMM_VERS = 2.0
CREATION_DATE  = 
ORIGINATOR     = 

OBJECT_NAME    = STARLINK-35583
OBJECT_ID      = 2025-270Z
CENTER_NAME    = EARTH
REF_FRAME      = TEME
TIME_SYSTEM    = UTC
MEAN_ELEMENT_THEORY = SGP/SGP4

EPOCH          = 2025-12-28T07:19:33.682080
MEAN_MOTION    = 15.40750128
ECCENTRICITY   = .000059
INCLINATION    = 42.9974
RA_OF_ASC_NODE = 102.3369
ARG_OF_PERICENTER = 150.1211
MEAN_ANOMALY   = 209.9679

EPHEMERIS_TYPE = 0
CLASSIFICATION_TYPE = U
NORAD_CAT_ID   = 66611
ELEMENT_SET_NO = 999
REV_AT_EPOCH   = 686
BSTAR          = .14055E-2
MEAN_MOTION_DOT = .58961E-3
MEAN_MOTION_DDOT = 0

CCSDS_OMM_VERS = 2.0
CREATION_DATE  = 
ORIGINATOR     = 

OBJECT_NAME    = STARLINK-36039
OBJECT_ID      = 2025-270AA
CENTER_NAME    = EARTH
REF_FRAME      = TEME
TIME_SYSTEM    = UTC
MEAN_ELEMENT_THEORY = SGP/SGP4

EPOCH          = 2025-12-28T09:57:26.450208
MEAN_MOTION    = 15.40770943
ECCENTRICITY   = .000124
INCLINATION    = 43.0000
RA_OF_ASC_NODE = 102.3028
ARG_OF_PERICENTER = 209.5323
MEAN_ANOMALY   = 150.5464

EPHEMERIS_TYPE = 0
CLASSIFICATION_TYPE = U
NORAD_CAT_ID   = 66612
ELEMENT_SET_NO = 999
REV_AT_EPOCH   = 676
BSTAR          = -.26212E-5
MEAN_MOTION_DOT = -.413E-5
MEAN_MOTION_DDOT = 0

CCSDS_OMM_VERS = 2.0
CREATION_DATE  = 
ORIGINATOR     = 

OBJECT_NAME    = STARLINK-36037
OBJECT_ID      = 2025-270AB
CENTER_NAME    = EARTH
REF_FRAME      = TEME
TIME_SYSTEM    = UTC
MEAN_ELEMENT_THEORY = SGP/SGP4

EPOCH          = 2025-12-28T08:17:37.400064
MEAN_MOTION    = 15.40687094
ECCENTRICITY   = .0001149
INCLINATION    = 43.0001
RA_OF_ASC_NODE = 102.6460
ARG_OF_PERICENTER = 235.1135
MEAN_ANOMALY   = 124.9613

EPHEMERIS_TYPE = 0
CLASSIFICATION_TYPE = U
NORAD_CAT_ID   = 66613
ELEMENT_SET_NO = 999
REV_AT_EPOCH   = 675
BSTAR          = .74827E-3
MEAN_MOTION_DOT = .31067E-3
MEAN_MOTION_DDOT = 0

